HULIANWANG DIGUI-148    
1 67524U 26013C   26037.28221648  .00000046  00000+0  16348-3 0  9991
2 67524  50.0118 113.1267 0000763 177.5757 182.5144 13.86604212  2513
HULIANWANG DIGUI-149    
1 67525U 26013D   26036.99202045  .00000038  00000+0  15511-3 0  9991
2 67525  49.9875 114.2379 0004743 103.8840 256.2586 13.87340887  2474
HULIANWANG DIGUI-150    
1 67526U 26013E   26037.13062937  .00000039  00000+0  15525-3 0  9999
2 67526  50.0010 113.6560 0003989  12.5864 347.5133 13.87629770  2515
HULIANWANG DIGUI-151    
1 67527U 26013F   26037.63752077  .00000019  00000+0  13814-3 0  9993
2 67527  50.0094 111.6746 0000278  88.8689 271.2241 13.87467017  2563
HULIANWANG DIGUI-152    
1 67528U 26013G   26037.20144763  .00000057  00000+0  16901-3 0  9996
2 67528  50.0046 113.3476 0000754  20.0472 340.0455 13.87865609  2502
HULIANWANG DIGUI-153    
1 67529U 26013H   26036.54943025 -.00000090  00000+0  46037-4 0  9993
2 67529  49.9997 115.8933 0001121 186.0894 173.9990 13.88721006  2409
HULIANWANG DIGUI-154    
1 67530U 26013J   26036.76326014  .00000142  00000+0  23786-3 0  9994
2 67530  50.0008 115.0483 0001079 186.0199 174.0686 13.88619990  2434
CZ-12 R/B               
1 67531U 26013K   26037.24401097  .00000283  00000+0  22241-3 0  9995
2 67531  49.9920 110.9039 0068729 189.5936 170.3664 14.14457780  2531
STARLINK-36587          
1 67532U 26014A   26037.58335648  .00087557  00000+0  45291-3 0  9991
2 67532  97.2839 280.9102 0001588  66.4926 227.3272 15.80832992  3689
STARLINK-36417          
1 67533U 26014B   26037.58335648  .00188451  00000+0  12390-2 0  9990
2 67533  97.2848 280.9022 0000939  78.0561 198.7951 15.75145380  3681
STARLINK-36576          
1 67534U 26014C   26037.58335648  .00013888  00000+0  72949-4 0  9990
2 67534  97.2843 280.9127 0000975  74.9719 226.7551 15.80870067  3684
STARLINK-36574          
1 67535U 26014D   26037.58335648 -.00001015  00000+0 -45441-5 0  9990
2 67535  97.2842 280.9156 0001409  98.3214 210.6781 15.80879782  3689
